SL-16 R/B               
1 25400U 98043G   26003.12839635  .00000162  00000+0  86611-4 0  9997
2 25400  98.8152 316.0694 0009407 199.0313 161.0516 14.26031827429640
SL-16 R/B               
1 25407U 98045B   26003.09610498 -.00000049  00000+0 -45779-6 0  9994
2 25407  71.0128 319.5142 0005571 140.5865 219.5665 14.16181842417812
ISS (ZARYA)             
1 25544U 98067A   26002.82312794  .00015413  00000+0  28669-3 0  9993
2 25544  51.6329  38.0777 0007544 333.0714  26.9882 15.49046836546120
CZ-4B R/B               
1 25732U 99025C   26003.11682993  .00000153  00000+0  94847-4 0  9998
2 25732  98.6738  48.9155 0037269 172.0975 204.0875 14.18249782378877
OKEAN-O                 
1 25860U 99039A   26003.15130409  .00001472  00000+0  20053-3 0  9991
2 25860  97.9572  63.6650 0001303 113.7027 246.4321 14.80206264424696
SL-16 R/B               
1 25861U 99039B   26003.12586378  .00001236  00000+0  16371-3 0  9995
2 25861  98.0094  62.2753 0016039 108.7085 251.5870 14.81624559427159
DELTA 2 R/B             
1 25876U 99041E   26002.95570532  .00003029  00000+0  52487-3 0  9999
2 25876  51.7590 203.7502 0504163 154.3033 208.3902 14.11482068353745
HELIOS 1B               
1 25977U 99064A   26003.12984592  .00004132  00000+0  46340-3 0  9998
2 25977  98.1755 263.4303 0000428  48.3031 311.8221 14.87389087675518
TERRA                   
1 25994U 99068A   26003.17274409  .00000985  00000+0  21017-3 0  9991
2 25994  97.9718  59.0674 0003074  50.6954  15.0236 14.60931478385518
SL-16 R/B               
1 26070U 00006B   26003.09446558  .00000254  00000+0  15343-3 0  9992
2 26070  71.0016 235.7581 0018840 279.9778  79.9219 14.15814587339278
TITAN 4B R/B            
1 26474U 00047B   26003.08804208  .00005911  00000+0  37543-3 0  9995
2 26474  67.9882 224.8922 0037510 118.5474 241.9459 15.08963141383017
ENVISAT                 
1 27386U 02009A   25365.95019499  .00000264  00000+0  99422-4 0  9995
2 27386  98.3626 316.2065 0001107  88.1807 295.1197 14.39007536249430
